start=new Date('2023-05-17T00:00:00.000Z').valueOf();
sats=[{"LAUNCH_DATE":"2020-02-17","CENTER_NAME":"EARTH","ECCENTRICITY":"0.00013410","EPHEMERIS_TYPE":"0","OBJECT_TYPE":"PAYLOAD","RA_OF_ASC_NODE":"344.5282","MEAN_MOTION_DOT":"0.00003765","REV_AT_EPOCH":"17701","SITE":"AFETR","MEAN_MOTION":"15.06395295","EPOCH":"2023-05-16T00:18:22.313664","FILE":"3909472","APOAPSIS":"548.157","OBJECT_ID":"2020-012M","GP_ID":"231962420","BSTAR":"0.00027154000000","INCLINATION":"53.0542","TLE_LINE1":"1 45189U 20012M   23136.01275826  .00003765  00000-0  27154-3 0  9991","PERIAPSIS":"546.299","SEMIMAJOR_AXIS":"6925.363","NORAD_CAT_ID":"45189","MEAN_ELEMENT_THEORY":"SGP4","REF_FRAME":"TEME","TIME_SYSTEM":"UTC","ELEMENT_SET_NO":"999","PERIOD":"95.592","CLASSIFICATION_TYPE":"U","RCS_SIZE":"LARGE","DECAY_DATE":null,"ARG_OF_PERICENTER":"110.8248","MEAN_ANOMALY":"249.2885","TLE_LINE2":"2 45189  53.0542 344.5282 0001341 110.8248 249.2885 15.06395295177018","COUNTRY_CODE":"US","MEAN_MOTION_DDOT":"0.0000000000000","OBJECT_NAME":"STARLINK-1230"},{"NORAD_CAT_ID":"45190","SEMIMAJOR_AXIS":"6925.290","TLE_LINE1":"1 45190U 20012N   23136.76099411  .00016474  00000-0  11217-2 0  9992","PERIAPSIS":"546.333","BSTAR":"0.00112170000000","INCLINATION":"53.0544","GP_ID":"231995654","EPOCH":"2023-05-16T18:15:49.891104","FILE":"3909742","APOAPSIS":"547.978","OBJECT_ID":"2020-012N","MEAN_MOTION":"15.06418994","REV_AT_EPOCH":"18036","SITE":"AFETR","RA_OF_ASC_NODE":"301.1713","OBJECT_TYPE":"PAYLOAD","MEAN_MOTION_DOT":"0.00016474","EPHEMERIS_TYPE":"0","ECCENTRICITY":"0.00011880","CENTER_NAME":"EARTH","LAUNCH_DATE":"2020-02-17","OBJECT_NAME":"STARLINK-1234","MEAN_MOTION_DDOT":"0.0000000000000","COUNTRY_CODE":"US","TLE_LINE2":"2 45190  53.0544 301.1713 0001188  96.4444 263.6680 15.06418994180363","MEAN_ANOMALY":"263.6680","ARG_OF_PERICENTER":"96.4444","RCS_SIZE":"LARGE","DECAY_DATE":null,"CLASSIFICATION_TYPE":"U","PERIOD":"95.591","ELEMENT_SET_NO":"999","TIME_SYSTEM":"UTC","MEAN_ELEMENT_THEORY":"SGP4","REF_FRAME":"TEME"},{"MEAN_MOTION_DOT":"0.00013609","RA_OF_ASC_NODE":"341.5157","OBJECT_TYPE":"PAYLOAD","SITE":"AFETR","REV_AT_EPOCH":"17710","MEAN_MOTION":"15.06410459","OBJECT_ID":"2020-012P","APOAPSIS":"547.846","FILE":"3909742","EPOCH":"2023-05-16T16:24:22.778208","LAUNCH_DATE":"2020-02-17","CENTER_NAME":"EARTH","ECCENTRICITY":"0.00009590","EPHEMERIS_TYPE":"0","INCLINATION":"53.0543","BSTAR":"0.00093049000000","PERIAPSIS":"546.517","TLE_LINE1":"1 45191U 20012P   23136.68359697  .00013609  00000-0  93049-3 0  9990","SEMIMAJOR_AXIS":"6925.317","NORAD_CAT_ID":"45191","GP_ID":"231994403","PERIOD":"95.591","ELEMENT_SET_NO":"999","CLASSIFICATION_TYPE":"U","DECAY_DATE":null,"RCS_SIZE":"LARGE","REF_FRAME":"TEME","MEAN_ELEMENT_THEORY":"SGP4","TIME_SYSTEM":"UTC","COUNTRY_CODE":"US","MEAN_MOTION_DDOT":"0.0000000000000","OBJECT_NAME":"STARLINK-1236","ARG_OF_PERICENTER":"101.8411","MEAN_ANOMALY":"258.2685","TLE_LINE2":"2 45191  53.0543 341.5157 0000959 101.8411 258.2685 15.06410459177104"},{"PERIOD":"95.591","ELEMENT_SET_NO":"999","CLASSIFICATION_TYPE":"U","RCS_SIZE":"LARGE","DECAY_DATE":null,"MEAN_ELEMENT_THEORY":"SGP4","REF_FRAME":"TEME","TIME_SYSTEM":"UTC","COUNTRY_CODE":"US","MEAN_MOTION_DDOT":"0.0000000000000","OBJECT_NAME":"STARLINK-1237","ARG_OF_PERICENTER":"71.0070","MEAN_ANOMALY":"289.1069","TLE_LINE2":"2 45192  53.0532 340.7384 0001383  71.0070 289.1069 15.06412063179921","OBJECT_TYPE":"PAYLOAD","RA_OF_ASC_NODE":"340.7384","MEAN_MOTION_DOT":"0.00008500","REV_AT_EPOCH":"17992","SITE":"AFETR","MEAN_MOTION":"15.06412063","EPOCH":"2023-05-16T20:33:50.776416","FILE":"3909742","APOAPSIS":"548.134","OBJECT_ID":"2020-012Q","LAUNCH_DATE":"2020-02-17","CENTER_NAME":"EARTH","ECCENTRICITY":"0.00013830","EPHEMERIS_TYPE":"0","BSTAR":"0.00058863000000","INCLINATION":"53.0532","TLE_LINE1":"1 45192U 20012Q   23136.85683769  .00008500  00000-0  58863-3 0  9999","PERIAPSIS":"546.219","SEMIMAJOR_AXIS":"6925.312","NORAD_CAT_ID":"45192","GP_ID":"231994653"},{"CLASSIFICATION_TYPE":"U","RCS_SIZE":"LARGE","DECAY_DATE":null,"ELEMENT_SET_NO":"999","PERIOD":"95.591","MEAN_ELEMENT_THEORY":"SGP4","REF_FRAME":"TEME","TIME_SYSTEM":"UTC","MEAN_MOTION_DDOT":"0.0000000000000","OBJECT_NAME":"STARLINK-1239","COUNTRY_CODE":"US","MEAN_ANOMALY":"288.4848","TLE_LINE2":"2 45193  53.0541 340.7870 0000830  71.6231 288.4848 15.06416803179869","ARG_OF_PERICENTER":"71.6231","MEAN_MOTION":"15.06416803","FILE":"3909742","EPOCH":"2023-05-16T20:17:55.545792","OBJECT_ID":"2020-012R","APOAPSIS":"547.737","RA_OF_ASC_NODE":"340.7870","OBJECT_TYPE":"PAYLOAD","MEAN_MOTION_DOT":"0.00011462","REV_AT_EPOCH":"17986","SITE":"AFETR","EPHEMERIS_TYPE":"0","LAUNCH_DATE":"2020-02-17","CENTER_NAME":"EARTH","ECCENTRICITY":"0.00008300","SEMIMAJOR_AXIS":"6925.297","NORAD_CAT_ID":"45193","BSTAR":"0.00078675000000","INCLINATION":"53.0541","PERIAPSIS":"546.587","TLE_LINE1":"1 45193U 20012R   23136.84578178  .00011462  00000-0  78675-3 0  9990","GP_ID":"231995405"},{"GP_ID":"231995156","SEMIMAJOR_AXIS":"6925.318","NORAD_CAT_ID":"45194","INCLINATION":"53.0545","BSTAR":"0.00025353000000","TLE_LINE1":"1 45194U 20012S   23136.84945651  .00003498  00000-0  25353-3 0  9990","PERIAPSIS":"546.419","EPHEMERIS_TYPE":"0","LAUNCH_DATE":"2020-02-17","CENTER_NAME":"EARTH","ECCENTRICITY":"0.00011040","MEAN_MOTION":"15.06409854","OBJECT_ID":"2020-012S","APOAPSIS":"547.948","FILE":"3909742","EPOCH":"2023-05-16T20:23:13.042464","MEAN_MOTION_DOT":"0.00003498","RA_OF_ASC_NODE":"340.7743","OBJECT_TYPE":"PAYLOAD","SITE":"AFETR","REV_AT_EPOCH":"17981","MEAN_ANOMALY":"273.2624","TLE_LINE2":"2 45194  53.0545 340.7743 0001104  86.8492 273.2624 15.06409854179812","ARG_OF_PERICENTER":"86.8492","MEAN_MOTION_DDOT":"0.0000000000000","OBJECT_NAME":"STARLINK-1240","COUNTRY_CODE":"US","REF_FRAME":"TEME","MEAN_ELEMENT_THEORY":"SGP4","TIME_SYSTEM":"UTC","CLASSIFICATION_TYPE":"U","DECAY_DATE":null,"RCS_SIZE":"LARGE","ELEMENT_SET_NO":"999","PERIOD":"95.592"},{"MEAN_MOTION_DDOT":"0.0000000000000","OBJECT_NAME":"STARLINK-1241","COUNTRY_CODE":"US","MEAN_ANOMALY":"112.5471","TLE_LINE2":"2 45195  53.0454 305.6433 0007011 247.4794 112.5471 15.48366587180404","ARG_OF_PERICENTER":"247.4794","CLASSIFICATION_TYPE":"U","RCS_SIZE":"LARGE","DECAY_DATE":null,"PERIOD":"93.001","ELEMENT_SET_NO":"999","MEAN_ELEMENT_THEORY":"SGP4","REF_FRAME":"TEME","TIME_SYSTEM":"UTC","SEMIMAJOR_AXIS":"6799.641","NORAD_CAT_ID":"45195","BSTAR":"0.00294650000000","INCLINATION":"53.0454","TLE_LINE1":"1 45195U 20012T   23136.72892058  .00161552  00000-0  29465-2 0  9993","PERIAPSIS":"416.739","GP_ID":"231993905","MEAN_MOTION":"15.48366587","FILE":"3909742","EPOCH":"2023-05-16T17:29:38.738112","APOAPSIS":"426.273","OBJECT_ID":"2020-012T","RA_OF_ASC_NODE":"305.6433","OBJECT_TYPE":"PAYLOAD","MEAN_MOTION_DOT":"0.00161552","REV_AT_EPOCH":"18040","SITE":"AFETR","EPHEMERIS_TYPE":"0","LAUNCH_DATE":"2020-02-17","CENTER_NAME":"EARTH","ECCENTRICITY":"0.00070110"},{"PERIOD":"95.591","ELEMENT_SET_NO":"999","DECAY_DATE":null,"RCS_SIZE":"LARGE","CLASSIFICATION_TYPE":"U","TIME_SYSTEM":"UTC","REF_FRAME":"TEME","MEAN_ELEMENT_THEORY":"SGP4","COUNTRY_CODE":"US","OBJECT_NAME":"STARLINK-1244","MEAN_MOTION_DDOT":"0.0000000000000","ARG_OF_PERICENTER":"106.0325","TLE_LINE2":"2 45196  53.0541 340.8525 0000883 106.0325 254.0761 15.06419081179960","MEAN_ANOMALY":"254.0761","SITE":"AFETR","REV_AT_EPOCH":"17996","MEAN_MOTION_DOT":"0.00013228","OBJECT_TYPE":"PAYLOAD","RA_OF_ASC_NODE":"340.8525","APOAPSIS":"547.767","OBJECT_ID":"2020-012U","FILE":"3909742","EPOCH":"2023-05-16T19:56:41.286624","MEAN_MOTION":"15.06419081","ECCENTRICITY":"0.00008830","CENTER_NAME":"EARTH","LAUNCH_DATE":"2020-02-17","EPHEMERIS_TYPE":"0","TLE_LINE1":"1 45196U 20012U   23136.83103341  .00013228  00000-0  90482-3 0  9990","PERIAPSIS":"546.544","INCLINATION":"53.0541","BSTAR":"0.00090482000000","NORAD_CAT_ID":"45196","SEMIMAJOR_AXIS":"6925.290","GP_ID":"231994154"},{"TLE_LINE2":"2 45197  53.0552 340.9075 0001282 110.5676 249.5450 15.06409657179880","MEAN_ANOMALY":"249.5450","ARG_OF_PERICENTER":"110.5676","OBJECT_NAME":"STARLINK-1269","MEAN_MOTION_DDOT":"0.0000000000000","COUNTRY_CODE":"US","TIME_SYSTEM":"UTC","REF_FRAME":"TEME","MEAN_ELEMENT_THEORY":"SGP4","DECAY_DATE":null,"RCS_SIZE":"LARGE","CLASSIFICATION_TYPE":"U","PERIOD":"95.592","ELEMENT_SET_NO":"999","GP_ID":"231994906","NORAD_CAT_ID":"45197","SEMIMAJOR_AXIS":"6925.319","TLE_LINE1":"1 45197U 20012V   23136.81997715  .00008517  00000-0  58985-3 0  9992","PERIAPSIS":"546.296","INCLINATION":"53.0552","BSTAR":"0.00058985000000","EPHEMERIS_TYPE":"0","ECCENTRICITY":"0.00012820","CENTER_NAME":"EARTH","LAUNCH_DATE":"2020-02-17","APOAPSIS":"548.072","OBJECT_ID":"2020-012V","FILE":"3909742","EPOCH":"2023-05-16T19:40:46.025760","MEAN_MOTION":"15.06409657","SITE":"AFETR","REV_AT_EPOCH":"17988","MEAN_MOTION_DOT":"0.00008517","RA_OF_ASC_NODE":"340.9075","OBJECT_TYPE":"PAYLOAD"},{"OBJECT_NAME":"STARLINK-1154","MEAN_MOTION_DDOT":"0.0000000000000","COUNTRY_CODE":"US","TLE_LINE2":"2 45198  53.0547 320.9448 0000939  98.9616 261.1479 15.06413104180131","MEAN_ANOMALY":"261.1479","ARG_OF_PERICENTER":"98.9616","RCS_SIZE":"LARGE","DECAY_DATE":null,"CLASSIFICATION_TYPE":"U","ELEMENT_SET_NO":"999","PERIOD":"95.591","TIME_SYSTEM":"UTC","MEAN_ELEMENT_THEORY":"SGP4","REF_FRAME":"TEME","NORAD_CAT_ID":"45198","SEMIMAJOR_AXIS":"6925.308","PERIAPSIS":"546.523","TLE_LINE1":"1 45198U 20012W   23136.81075537  .00010971  00000-0  75397-3 0  9995","BSTAR":"0.00075397000000","INCLINATION":"53.0547","GP_ID":"231995655","EPOCH":"2023-05-16T19:27:29.263968","FILE":"3909742","APOAPSIS":"547.824","OBJECT_ID":"2020-012W","MEAN_MOTION":"15.06413104","REV_AT_EPOCH":"18013","SITE":"AFETR","RA_OF_ASC_NODE":"320.9448","OBJECT_TYPE":"PAYLOAD","MEAN_MOTION_DOT":"0.00010971","EPHEMERIS_TYPE":"0","ECCENTRICITY":"0.00009390","CENTER_NAME":"EARTH","LAUNCH_DATE":"2020-02-17"}];
